[{"OBJECT_NAME":"EYESAT A (AO-27)","OBJECT_ID":"1993-061C","EPOCH":"2026-03-09T16:58:07.157856","MEAN_MOTION":14.30913089,"ECCENTRICITY":0.00089503,"INCLINATION":98.6982,"RA_OF_ASC_NODE":136.1171,"ARG_OF_PERICENTER":38.8989,"MEAN_ANOMALY":321.2837,"EPHEMERIS_TYPE":0,"CLASSIFICATION_TYPE":"U","NORAD_CAT_ID":22825,"ELEMENT_SET_NO":999,"REV_AT_EPOCH":69277,"BSTAR":7.1797441e-5,"MEAN_MOTION_DOT":1.44e-6,"MEAN_MOTION_DDOT":0},{"OBJECT_NAME":"CZ-6A DEB","OBJECT_ID":"2022-151AGT","EPOCH":"2026-03-08T01:59:01.401504","MEAN_MOTION":14.54465324,"ECCENTRICITY":0.01067791,"INCLINATION":98.8083,"RA_OF_ASC_NODE":150.2765,"ARG_OF_PERICENTER":267.0965,"MEAN_ANOMALY":91.8006,"EPHEMERIS_TYPE":0,"CLASSIFICATION_TYPE":"U","NORAD_CAT_ID":56667,"ELEMENT_SET_NO":999,"REV_AT_EPOCH":15708,"BSTAR":0.0007597353,"MEAN_MOTION_DOT":3.434e-5,"MEAN_MOTION_DDOT":0}]
